{"type":"FeatureCollection","features":[{"type":"Feature","id":"sublocalidad_entidad_bahra.471","geometry":{"type":"MultiPoint","coordinates":[[-58.2133216,-32.1795681]]},"geometry_name":"geom","properties":{"gid":471,"cod_pcia":"30","nom_pcia":"Entre Ríos","cod_depto":"30008","nom_depto":"Colón","cod_ase":"3000809001","fna":"El Brillante","tipo_asent":"Entidad","cod_aglo":"0227","nom_aglo":"San José","cod_agl":"300014","nom_agl":"San José","lat_gd":"-32.179568","long_gd":"-58.213322","lat_gs":"-32º10'46\"","long_gs":"-58º12'48\"","fdc":"INDEC"},"bbox":[-58.2133216,-32.1795681,-58.2133216,-32.1795681]},{"type":"Feature","id":"sublocalidad_entidad_bahra.472","geometry":{"type":"MultiPoint","coordinates":[[-58.1946827,-32.18197312]]},"geometry_name":"geom","properties":{"gid":472,"cod_pcia":"30","nom_pcia":"Entre Ríos","cod_depto":"30008","nom_depto":"Colón","cod_ase":"3000809002","fna":"El Colorado","tipo_asent":"Entidad","cod_aglo":"0227","nom_aglo":"San José","cod_agl":"300014","nom_agl":"San José","lat_gd":"-32.181973","long_gd":"-58.194683","lat_gs":"-32º10'55\"","long_gs":"-58º11'41\"","fdc":"INDEC"},"bbox":[-58.1946827,-32.18197312,-58.1946827,-32.18197312]},{"type":"Feature","id":"sublocalidad_entidad_bahra.473","geometry":{"type":"MultiPoint","coordinates":[[-58.21867249,-32.20849503]]},"geometry_name":"geom","properties":{"gid":473,"cod_pcia":"30","nom_pcia":"Entre Ríos","cod_depto":"30008","nom_depto":"Colón","cod_ase":"3000809003","fna":"San José","tipo_asent":"Entidad","cod_aglo":"0227","nom_aglo":"San José","cod_agl":"300014","nom_agl":"San José","lat_gd":"-32.208495","long_gd":"-58.218672","lat_gs":"-32º12'31\"","long_gs":"-58º13' 7\"","fdc":"INDEC"},"bbox":[-58.21867249,-32.20849503,-58.21867249,-32.20849503]},{"type":"Feature","id":"sublocalidad_entidad_bahra.474","geometry":{"type":"MultiPoint","coordinates":[[-58.07194249,-31.43463909]]},"geometry_name":"geom","properties":{"gid":474,"cod_pcia":"30","nom_pcia":"Entre Ríos","cod_depto":"30015","nom_depto":"Concordia","cod_ase":"3001506001","fna":"Benito Legerén","tipo_asent":"Entidad","cod_aglo":"0023","nom_aglo":"Concordia","cod_agl":"300042","nom_agl":"Concordia","lat_gd":"-31.434639","long_gd":"-58.071942","lat_gs":"-31º26' 5\"","long_gs":"-58º 4'19\"","fdc":"INDEC"},"bbox":[-58.07194249,-31.43463909,-58.07194249,-31.43463909]},{"type":"Feature","id":"sublocalidad_entidad_bahra.475","geometry":{"type":"MultiPoint","coordinates":[[-58.0697698,-31.39829171]]},"geometry_name":"geom","properties":{"gid":475,"cod_pcia":"30","nom_pcia":"Entre Ríos","cod_depto":"30015","nom_depto":"Concordia","cod_ase":"3001506002","fna":"Villa Adela","tipo_asent":"Entidad","cod_aglo":"0023","nom_aglo":"Concordia","cod_agl":"300042","nom_agl":"Concordia","lat_gd":"-31.398292","long_gd":"-58.069770","lat_gs":"-31º23'54\"","long_gs":"-58º 4'11\"","fdc":"INDEC"},"bbox":[-58.0697698,-31.39829171,-58.0697698,-31.39829171]},{"type":"Feature","id":"sublocalidad_entidad_bahra.476","geometry":{"type":"MultiPoint","coordinates":[[-58.07926689,-31.41116059]]},"geometry_name":"geom","properties":{"gid":476,"cod_pcia":"30","nom_pcia":"Entre Ríos","cod_depto":"30015","nom_depto":"Concordia","cod_ase":"3001506003","fna":"Las Tejas","tipo_asent":"Entidad","cod_aglo":"0023","nom_aglo":"Concordia","cod_agl":"300042","nom_agl":"Concordia","lat_gd":"-31.411161","long_gd":"-58.079267","lat_gs":"-31º24'40\"","long_gs":"-58º 4'45\"","fdc":"INDEC"},"bbox":[-58.07926689,-31.41116059,-58.07926689,-31.41116059]},{"type":"Feature","id":"sublocalidad_entidad_bahra.477","geometry":{"type":"MultiPoint","coordinates":[[-58.01720343,-31.39745089]]},"geometry_name":"geom","properties":{"gid":477,"cod_pcia":"30","nom_pcia":"Entre Ríos","cod_depto":"30015","nom_depto":"Concordia","cod_ase":"3001506005","fna":"Concordia","tipo_asent":"Entidad","cod_aglo":"0023","nom_aglo":"Concordia","cod_agl":"300042","nom_agl":"Concordia","lat_gd":"-31.397451","long_gd":"-58.017203","lat_gs":"-31º23'51\"","long_gs":"-58º 1' 2\"","fdc":"INDEC"},"bbox":[-58.01720343,-31.39745089,-58.01720343,-31.39745089]},{"type":"Feature","id":"sublocalidad_entidad_bahra.478","geometry":{"type":"MultiPoint","coordinates":[[-58.01448614,-31.32185706]]},"geometry_name":"geom","properties":{"gid":478,"cod_pcia":"30","nom_pcia":"Entre Ríos","cod_depto":"30015","nom_depto":"Concordia","cod_ase":"3001506007","fna":"Villa Zorraquín","tipo_asent":"Entidad","cod_aglo":"0023","nom_aglo":"Concordia","cod_agl":"300042","nom_agl":"Concordia","lat_gd":"-31.321857","long_gd":"-58.014486","lat_gs":"-31º19'19\"","long_gs":"-58º 0'52\"","fdc":"INDEC"},"bbox":[-58.01448614,-31.32185706,-58.01448614,-31.32185706]},{"type":"Feature","id":"sublocalidad_entidad_bahra.479","geometry":{"type":"MultiPoint","coordinates":[[-60.64264612,-32.06712822]]},"geometry_name":"geom","properties":{"gid":479,"cod_pcia":"30","nom_pcia":"Entre Ríos","cod_depto":"30021","nom_depto":"Diamante","cod_ase":"3002108001","fna":"Diamante","tipo_asent":"Entidad","cod_aglo":"0168","nom_aglo":"Diamante","cod_agl":"300084","nom_agl":"Diamante","lat_gd":"-32.067128","long_gd":"-60.642646","lat_gs":"-32º 4' 2\"","long_gs":"-60º38'34\"","fdc":"INDEC"},"bbox":[-60.64264612,-32.06712822,-60.64264612,-32.06712822]},{"type":"Feature","id":"sublocalidad_entidad_bahra.480","geometry":{"type":"MultiPoint","coordinates":[[-60.61248662,-32.05377391]]},"geometry_name":"geom","properties":{"gid":480,"cod_pcia":"30","nom_pcia":"Entre Ríos","cod_depto":"30021","nom_depto":"Diamante","cod_ase":"3002108002","fna":"Strobel","tipo_asent":"Entidad","cod_aglo":"0168","nom_aglo":"Diamante","cod_agl":"300084","nom_agl":"Diamante","lat_gd":"-32.053774","long_gd":"-60.612487","lat_gs":"-32º 3'14\"","long_gs":"-60º36'45\"","fdc":"INDEC"},"bbox":[-60.61248662,-32.05377391,-60.61248662,-32.05377391]},{"type":"Feature","id":"sublocalidad_entidad_bahra.481","geometry":{"type":"MultiPoint","coordinates":[[-60.44688627,-32.0558293]]},"geometry_name":"geom","properties":{"gid":481,"cod_pcia":"30","nom_pcia":"Entre Ríos","cod_depto":"30021","nom_depto":"Diamante","cod_ase":"3002115001","fna":"Estación Puiggari","tipo_asent":"Entidad","cod_aglo":"0543","nom_aglo":"Villa Libertador San Martín","cod_agl":"300098","nom_agl":"Villa Libertador San Martín","lat_gd":"-32.055829","long_gd":"-60.446886","lat_gs":"-32º 3'21\"","long_gs":"-60º26'49\"","fdc":"INDEC"},"bbox":[-60.44688627,-32.0558293,-60.44688627,-32.0558293]},{"type":"Feature","id":"sublocalidad_entidad_bahra.482","geometry":{"type":"MultiPoint","coordinates":[[-60.46104082,-32.07392855]]},"geometry_name":"geom","properties":{"gid":482,"cod_pcia":"30","nom_pcia":"Entre Ríos","cod_depto":"30021","nom_depto":"Diamante","cod_ase":"3002115002","fna":"Villa Libertador San Martín","tipo_asent":"Entidad","cod_aglo":"0543","nom_aglo":"Villa Libertador San Martín","cod_agl":"300098","nom_agl":"Villa Libertador San Martín","lat_gd":"-32.073929","long_gd":"-60.461041","lat_gs":"-32º 4'26\"","long_gs":"-60º27'40\"","fdc":"INDEC"},"bbox":[-60.46104082,-32.07392855,-60.46104082,-32.07392855]},{"type":"Feature","id":"sublocalidad_entidad_bahra.483","geometry":{"type":"MultiPoint","coordinates":[[-60.0736872,-31.58238896]]},"geometry_name":"geom","properties":{"gid":483,"cod_pcia":"30","nom_pcia":"Entre Ríos","cod_depto":"30084","nom_depto":"Paraná","cod_ase":"3008405001","fna":"Cerrito","tipo_asent":"Entidad","cod_aglo":"0588","nom_aglo":"Cerrito","cod_agl":"300294","nom_agl":"Cerrito","lat_gd":"-31.582389","long_gd":"-60.073687","lat_gs":"-31º34'57\"","long_gs":"-60º 4'25\"","fdc":"INDEC"},"bbox":[-60.0736872,-31.58238896,-60.0736872,-31.58238896]},{"type":"Feature","id":"sublocalidad_entidad_bahra.484","geometry":{"type":"MultiPoint","coordinates":[[-60.06016109,-31.58700371]]},"geometry_name":"geom","properties":{"gid":484,"cod_pcia":"30","nom_pcia":"Entre Ríos","cod_depto":"30084","nom_depto":"Paraná","cod_ase":"3008405002","fna":"Pueblo Moreno","tipo_asent":"Entidad","cod_aglo":"0588","nom_aglo":"Cerrito","cod_agl":"300294","nom_agl":"Cerrito","lat_gd":"-31.587004","long_gd":"-60.060161","lat_gs":"-31º35'13\"","long_gs":"-60º 3'37\"","fdc":"INDEC"},"bbox":[-60.06016109,-31.58700371,-60.06016109,-31.58700371]}],"totalFeatures":14,"numberMatched":14,"numberReturned":14,"timeStamp":"2026-05-19T16:31:05.370Z","crs":{"type":"name","properties":{"name":"urn:ogc:def:crs:EPSG::4326"}},"bbox":[-60.64264612,-32.20849503,-58.01448614,-31.32185706]}